{"type": "FeatureCollection", "features": [ {"type": "Feature", "properties": {"norad_id": 34870, "name": "IRIDIUM 33 DEB", "group": "iridium-33-debris", "lat": -12.311942007564527, "lon": -52.90215493984009, "alt_km": 655.1815204630266, "timestamp": "2025-12-26T05:31:12.891882+00:00", "meta": {"OBJECT_NAME": "IRIDIUM 33 DEB", "OBJECT_ID": "1997-051MQ", "EPOCH": "2025-12-25T19:57:43.380576", "MEAN_MOTION": 14.76680651, "ECCENTRICITY": 0.00182287, "INCLINATION": 86.3109, "RA_OF_ASC_NODE": 308.0871, "ARG_OF_PERICENTER": 137.0164, "MEAN_ANOMALY": 255.1013, "EPHEMERIS_TYPE": 0, "CLASSIFICATION_TYPE": "U", "NORAD_CAT_ID": 34870, "ELEMENT_SET_NO": 999, "REV_AT_EPOCH": 89104, "BSTAR": 0.0015785942, "MEAN_MOTION_DOT": 0.00011101, "MEAN_MOTION_DDOT": 0}, "tle": {"line1": "1 34870U 97051MQ  25359.83175209  .00011101  00000+0  15786-2 0  9995", "line2": "2 34870  86.3109 308.0871 0018228 137.0164 255.1013 14.76680651891044"}}, "geometry": {"type": "Point", "coordinates": [-52.90215493984009, -12.311942007564527]}}, {"type": "Feature", "properties": {"norad_id": 34896, "name": "IRIDIUM 33 DEB", "group": "iridium-33-debris", "lat": 53.08561190178594, "lon": -34.464062078819055, "alt_km": 674.8192681581304, "timestamp": "2025-12-26T05:31:12.891893+00:00", "meta": {"OBJECT_NAME": "IRIDIUM 33 DEB", "OBJECT_ID": "1997-051MY", "EPOCH": "2025-12-24T04:12:44.288640", "MEAN_MOTION": 14.66381715, "ECCENTRICITY": 0.00257287, "INCLINATION": 86.3299, "RA_OF_ASC_NODE": 321.5555, "ARG_OF_PERICENTER": 173.6101, "MEAN_ANOMALY": 201.3064, "EPHEMERIS_TYPE": 0, "CLASSIFICATION_TYPE": "U", "NORAD_CAT_ID": 34896, "ELEMENT_SET_NO": 999, "REV_AT_EPOCH": 87787, "BSTAR": 0.00093038371, "MEAN_MOTION_DOT": 5.188e-05, "MEAN_MOTION_DDOT": 0}, "tle": {"line1": "1 34896U 97051MY  25358.17551260  .00005188  00000+0  93038-3 0  9999", "line2": "2 34896  86.3299 321.5555 0025728 173.6101 201.3064 14.66381715877873"}}, "geometry": {"type": "Point", "coordinates": [-34.464062078819055, 53.08561190178594]}}, {"type": "Feature", "properties": {"norad_id": 34926, "name": "IRIDIUM 33 DEB", "group": "iridium-33-debris", "lat": -62.64351068145412, "lon": -5.500324873831022, "alt_km": 683.3677677276874, "timestamp": "2025-12-26T05:31:12.891903+00:00", "meta": {"OBJECT_NAME": "IRIDIUM 33 DEB", "OBJECT_ID": "1997-051NF", "EPOCH": "2025-12-25T18:30:14.349024", "MEAN_MOTION": 14.55003847, "ECCENTRICITY": 0.00742448, "INCLINATION": 86.1316, "RA_OF_ASC_NODE": 2.2273, "ARG_OF_PERICENTER": 247.4767, "MEAN_ANOMALY": 166.2453, "EPHEMERIS_TYPE": 0, "CLASSIFICATION_TYPE": "U", "NORAD_CAT_ID": 34926, "ELEMENT_SET_NO": 999, "REV_AT_EPOCH": 86646, "BSTAR": 0.0054586547, "MEAN_MOTION_DOT": 0.0002447, "MEAN_MOTION_DDOT": 0}, "tle": {"line1": "1 34926U 97051NF  25359.77099941  .00024470  00000+0  54587-2 0  9993", "line2": "2 34926  86.1316   2.2273 0074244 247.4767 166.2453 14.55003847866469"}}, "geometry": {"type": "Point", "coordinates": [-5.500324873831022, -62.64351068145412]}}, {"type": "Feature", "properties": {"norad_id": 34985, "name": "IRIDIUM 33 DEB", "group": "iridium-33-debris", "lat": 13.288464962136281, "lon": -129.73567569497283, "alt_km": 737.2982612031783, "timestamp": "2025-12-26T05:31:12.891913+00:00", "meta": {"OBJECT_NAME": "IRIDIUM 33 DEB", "OBJECT_ID": "1997-051NR", "EPOCH": "2025-12-24T21:41:40.078176", "MEAN_MOTION": 14.42058691, "ECCENTRICITY": 0.0022059, "INCLINATION": 86.3682, "RA_OF_ASC_NODE": 51.6896, "ARG_OF_PERICENTER": 179.2427, "MEAN_ANOMALY": 307.5347, "EPHEMERIS_TYPE": 0, "CLASSIFICATION_TYPE": "U", "NORAD_CAT_ID": 34985, "ELEMENT_SET_NO": 999, "REV_AT_EPOCH": 87350, "BSTAR": 0.00065683, "MEAN_MOTION_DOT": 2.182e-05, "MEAN_MOTION_DDOT": 0}, "tle": {"line1": "1 34985U 97051NR  25358.90393609  .00002182  00000+0  65683-3 0  9996", "line2": "2 34985  86.3682  51.6896 0022059 179.2427 307.5347 14.42058691873501"}}, "geometry": {"type": "Point", "coordinates": [-129.73567569497283, 13.288464962136281]}}, {"type": "Feature", "properties": {"norad_id": 35051, "name": "IRIDIUM 33 DEB", "group": "iridium-33-debris", "lat": 10.201554392040913, "lon": 3.6453193486147097, "alt_km": 729.4635947387478, "timestamp": "2025-12-26T05:31:12.891923+00:00", "meta": {"OBJECT_NAME": "IRIDIUM 33 DEB", "OBJECT_ID": "1997-051NX", "EPOCH": "2025-12-22T18:31:37.744896", "MEAN_MOTION": 14.47639956, "ECCENTRICITY": 0.0010302, "INCLINATION": 86.324, "RA_OF_ASC_NODE": 4.4893, "ARG_OF_PERICENTER": 63.2582, "MEAN_ANOMALY": 296.9674, "EPHEMERIS_TYPE": 0, "CLASSIFICATION_TYPE": "U", "NORAD_CAT_ID": 35051, "ELEMENT_SET_NO": 999, "REV_AT_EPOCH": 87141, "BSTAR": 0.00060447572, "MEAN_MOTION_DOT": 2.248e-05, "MEAN_MOTION_DDOT": 0}, "tle": {"line1": "1 35051U 97051NX  25356.77196464  .00002248  00000+0  60448-3 0  9991", "line2": "2 35051  86.3240   4.4893 0010302  63.2582 296.9674 14.47639956871417"}}, "geometry": {"type": "Point", "coordinates": [3.6453193486147097, 10.201554392040913]}}, {"type": "Feature", "properties": {"norad_id": 35052, "name": "IRIDIUM 33 DEB", "group": "iridium-33-debris", "lat": 76.52881846889264, "lon": 30.23271324668681, "alt_km": 748.2528582035129, "timestamp": "2025-12-26T05:31:12.891933+00:00", "meta": {"OBJECT_NAME": "IRIDIUM 33 DEB", "OBJECT_ID": "1997-051NY", "EPOCH": "2025-12-25T00:47:01.040352", "MEAN_MOTION": 14.38506119, "ECCENTRICITY": 0.00130776, "INCLINATION": 86.3301, "RA_OF_ASC_NODE": 15.205, "ARG_OF_PERICENTER": 50.4625, "MEAN_ANOMALY": 309.7726, "EPHEMERIS_TYPE": 0, "CLASSIFICATION_TYPE": "U", "NORAD_CAT_ID": 35052, "ELEMENT_SET_NO": 999, "REV_AT_EPOCH": 87452, "BSTAR": 0.00019003838, "MEAN_MOTION_DOT": 6.01e-06, "MEAN_MOTION_DDOT": 0}, "tle": {"line1": "1 35052U 97051NY  25359.03265093  .00000601  00000+0  19004-3 0  9992", "line2": "2 35052  86.3301  15.2050 0013077  50.4625 309.7726 14.38506119874529"}}, "geometry": {"type": "Point", "coordinates": [30.23271324668681, 76.52881846889264]}}, {"type": "Feature", "properties": {"norad_id": 35080, "name": "IRIDIUM 33 DEB", "group": "iridium-33-debris", "lat": 73.64839990956439, "lon": 58.987945074166625, "alt_km": 577.3791026459685, "timestamp": "2025-12-26T05:31:12.891943+00:00", "meta": {"OBJECT_NAME": "IRIDIUM 33 DEB", "OBJECT_ID": "1997-051PF", "EPOCH": "2025-12-25T21:06:56.256192", "MEAN_MOTION": 14.87512202, "ECCENTRICITY": 0.00581422, "INCLINATION": 86.2077, "RA_OF_ASC_NODE": 46.0896, "ARG_OF_PERICENTER": 134.0447, "MEAN_ANOMALY": 226.5589, "EPHEMERIS_TYPE": 0, "CLASSIFICATION_TYPE": "U", "NORAD_CAT_ID": 35080, "ELEMENT_SET_NO": 999, "REV_AT_EPOCH": 69883, "BSTAR": 0.0055239472, "MEAN_MOTION_DOT": 0.00051992, "MEAN_MOTION_DDOT": 0}, "tle": {"line1": "1 35080U 97051PF  25359.87981778  .00051992  00000+0  55239-2 0  9998", "line2": "2 35080  86.2077  46.0896 0058142 134.0447 226.5589 14.87512202698837"}}, "geometry": {"type": "Point", "coordinates": [58.987945074166625, 73.64839990956439]}}, {"type": "Feature", "properties": {"norad_id": 35297, "name": "IRIDIUM 33 DEB", "group": "iridium-33-debris", "lat": -51.92544980997268, "lon": 52.371924111341684, "alt_km": 759.7556425659704, "timestamp": "2025-12-26T05:31:12.891953+00:00", "meta": {"OBJECT_NAME": "IRIDIUM 33 DEB", "OBJECT_ID": "1997-051PM", "EPOCH": "2025-12-22T21:59:54.464640", "MEAN_MOTION": 14.45198443, "ECCENTRICITY": 0.0018277, "INCLINATION": 86.3852, "RA_OF_ASC_NODE": 58.4147, "ARG_OF_PERICENTER": 110.0569, "MEAN_ANOMALY": 250.2602, "EPHEMERIS_TYPE": 0, "CLASSIFICATION_TYPE": "U", "NORAD_CAT_ID": 35297, "ELEMENT_SET_NO": 999, "REV_AT_EPOCH": 70573, "BSTAR": 0.00060275, "MEAN_MOTION_DOT": 2.134e-05, "MEAN_MOTION_DDOT": 0}, "tle": {"line1": "1 35297U 97051PM  25356.91660260  .00002134  00000+0  60275-3 0  9991", "line2": "2 35297  86.3852  58.4147 0018277 110.0569 250.2602 14.45198443705738"}}, "geometry": {"type": "Point", "coordinates": [52.371924111341684, -51.92544980997268]}}, {"type": "Feature", "properties": {"norad_id": 35299, "name": "IRIDIUM 33 DEB", "group": "iridium-33-debris", "lat": 32.38932724679591, "lon": 29.672707007122703, "alt_km": 716.2650856062883, "timestamp": "2025-12-26T05:31:12.891963+00:00", "meta": {"OBJECT_NAME": "IRIDIUM 33 DEB", "OBJECT_ID": "1997-051PP", "EPOCH": "2025-12-25T13:24:36.107136", "MEAN_MOTION": 14.40924492, "ECCENTRICITY": 0.0058519, "INCLINATION": 86.2877, "RA_OF_ASC_NODE": 27.6045, "ARG_OF_PERICENTER": 61.5173, "MEAN_ANOMALY": 91.5111, "EPHEMERIS_TYPE": 0, "CLASSIFICATION_TYPE": "U", "NORAD_CAT_ID": 35299, "ELEMENT_SET_NO": 999, "REV_AT_EPOCH": 86515, "BSTAR": 0.00086031, "MEAN_MOTION_DOT": 2.836e-05, "MEAN_MOTION_DDOT": 0}, "tle": {"line1": "1 35299U 97051PP  25359.55875124  .00002836  00000+0  86031-3 0  9990", "line2": "2 35299  86.2877  27.6045 0058519  61.5173  91.5111 14.40924492865155"}}, "geometry": {"type": "Point", "coordinates": [29.672707007122703, 32.38932724679591]}}, {"type": "Feature", "properties": {"norad_id": 35480, "name": "IRIDIUM 33 DEB", "group": "iridium-33-debris", "lat": -24.546748728689494, "lon": -159.26936222375755, "alt_km": 740.5265753424865, "timestamp": "2025-12-26T05:31:12.891972+00:00", "meta": {"OBJECT_NAME": "IRIDIUM 33 DEB", "OBJECT_ID": "1997-051QA", "EPOCH": "2025-12-24T07:51:25.805664", "MEAN_MOTION": 14.49809175, "ECCENTRICITY": 0.00158453, "INCLINATION": 86.3558, "RA_OF_ASC_NODE": 19.8875, "ARG_OF_PERICENTER": 70.7073, "MEAN_ANOMALY": 289.5844, "EPHEMERIS_TYPE": 0, "CLASSIFICATION_TYPE": "U", "NORAD_CAT_ID": 35480, "ELEMENT_SET_NO": 999, "REV_AT_EPOCH": 87199, "BSTAR": 0.00057778093, "MEAN_MOTION_DOT": 2.251e-05, "MEAN_MOTION_DDOT": 0}, "tle": {"line1": "1 35480U 97051QA  25358.32738201  .00002251  00000+0  57778-3 0  9997", "line2": "2 35480  86.3558  19.8875 0015845  70.7073 289.5844 14.49809175871994"}}, "geometry": {"type": "Point", "coordinates": [-159.26936222375755, -24.546748728689494]}}]}